ELYSIUM STAR 2 & LFF    
1 43760U 18099C   24230.15015056  .00087014  00000+0  26842-2 0  9994
2 43760  97.5117 298.3491 0004363  71.7054 288.4663 15.33229258312551
